{"type": "FeatureCollection", "features": [ {"type": "Feature", "properties": {"norad_id": 37216, "name": "COSMO-SKYMED 4", "group": "resource", "lat": -75.8290059232024, "lon": -54.43373752119743, "alt_km": 630.8650905149561, "timestamp": "2025-12-03T08:58:45.655906+00:00", "meta": {"OBJECT_NAME": "COSMO-SKYMED 4", "OBJECT_ID": "2010-060A", "EPOCH": "2025-12-03T04:34:39.150624", "MEAN_MOTION": 14.82149254, "ECCENTRICITY": 0.0001415, "INCLINATION": 97.8815, "RA_OF_ASC_NODE": 158.6578, "ARG_OF_PERICENTER": 82.9773, "MEAN_ANOMALY": 277.1601, "EPHEMERIS_TYPE": 0, "CLASSIFICATION_TYPE": "U", "NORAD_CAT_ID": 37216, "ELEMENT_SET_NO": 999, "REV_AT_EPOCH": 81553, "BSTAR": 0.00011469, "MEAN_MOTION_DOT": 8.61e-06, "MEAN_MOTION_DDOT": 0}, "tle": {"line1": "1 37216U 10060A   25337.19073091  .00000861  00000+0  11469-3 0  9994", "line2": "2 37216  97.8815 158.6578 0001415  82.9773 277.1601 14.82149254815532"}}, "geometry": {"type": "Point", "coordinates": [-54.43373752119743, -75.8290059232024]}}, {"type": "Feature", "properties": {"norad_id": 37387, "name": "RESOURCESAT-2", "group": "resource", "lat": 75.42025023604646, "lon": -102.53383044063862, "alt_km": 808.7882053090316, "timestamp": "2025-12-03T08:58:45.655917+00:00", "meta": {"OBJECT_NAME": "RESOURCESAT-2", "OBJECT_ID": "2011-015A", "EPOCH": "2025-12-03T03:26:09.117312", "MEAN_MOTION": 14.21590798, "ECCENTRICITY": 0.0006792, "INCLINATION": 98.789, "RA_OF_ASC_NODE": 40.7376, "ARG_OF_PERICENTER": 67.222, "MEAN_ANOMALY": 292.9674, "EPHEMERIS_TYPE": 0, "CLASSIFICATION_TYPE": "U", "NORAD_CAT_ID": 37387, "ELEMENT_SET_NO": 999, "REV_AT_EPOCH": 75832, "BSTAR": 0.00012184, "MEAN_MOTION_DOT": 2.23e-06, "MEAN_MOTION_DDOT": 0}, "tle": {"line1": "1 37387U 11015A   25337.14316108  .00000223  00000+0  12184-3 0  9995", "line2": "2 37387  98.7890  40.7376 0006792  67.2220 292.9674 14.21590798758321"}}, "geometry": {"type": "Point", "coordinates": [-102.53383044063862, 75.42025023604646]}}, {"type": "Feature", "properties": {"norad_id": 37781, "name": "HAIYANG-2A", "group": "resource", "lat": 30.55117028837287, "lon": 164.02597062240972, "alt_km": 965.5466214734815, "timestamp": "2025-12-03T08:58:45.655928+00:00", "meta": {"OBJECT_NAME": "HAIYANG-2A", "OBJECT_ID": "2011-043A", "EPOCH": "2025-12-03T04:46:36.134112", "MEAN_MOTION": 13.78834159, "ECCENTRICITY": 0.0001643, "INCLINATION": 99.3377, "RA_OF_ASC_NODE": 338.2805, "ARG_OF_PERICENTER": 97.145, "MEAN_ANOMALY": 262.9889, "EPHEMERIS_TYPE": 0, "CLASSIFICATION_TYPE": "U", "NORAD_CAT_ID": 37781, "ELEMENT_SET_NO": 999, "REV_AT_EPOCH": 71967, "BSTAR": 6.2745e-05, "MEAN_MOTION_DOT": 2e-07, "MEAN_MOTION_DDOT": 0}, "tle": {"line1": "1 37781U 11043A   25337.19902933  .00000020  00000+0  62745-4 0  9990", "line2": "2 37781  99.3377 338.2805 0001643  97.1450 262.9889 13.78834159719678"}}, "geometry": {"type": "Point", "coordinates": [164.02597062240972, 30.55117028837287]}}, {"type": "Feature", "properties": {"norad_id": 37791, "name": "RASAT", "group": "resource", "lat": 31.732568348857352, "lon": -108.19838035732842, "alt_km": 657.036904116314, "timestamp": "2025-12-03T08:58:45.655940+00:00", "meta": {"OBJECT_NAME": "RASAT", "OBJECT_ID": "2011-044D", "EPOCH": "2025-12-03T05:10:20.459712", "MEAN_MOTION": 14.67886926, "ECCENTRICITY": 0.0021965, "INCLINATION": 98.0656, "RA_OF_ASC_NODE": 66.6146, "ARG_OF_PERICENTER": 93.7032, "MEAN_ANOMALY": 296.1736, "EPHEMERIS_TYPE": 0, "CLASSIFICATION_TYPE": "U", "NORAD_CAT_ID": 37791, "ELEMENT_SET_NO": 999, "REV_AT_EPOCH": 76443, "BSTAR": 0.00016518, "MEAN_MOTION_DOT": 8.99e-06, "MEAN_MOTION_DDOT": 0}, "tle": {"line1": "1 37791U 11044D   25337.21551458  .00000899  00000+0  16518-3 0  9997", "line2": "2 37791  98.0656  66.6146 0021965  93.7032 296.1736 14.67886926764434"}}, "geometry": {"type": "Point", "coordinates": [-108.19838035732842, 31.732568348857352]}}, {"type": "Feature", "properties": {"norad_id": 37841, "name": "SRMSAT", "group": "resource", "lat": -19.69613317310956, "lon": 64.96065862796328, "alt_km": 848.7535153515364, "timestamp": "2025-12-03T08:58:45.655951+00:00", "meta": {"OBJECT_NAME": "SRMSAT", "OBJECT_ID": "2011-058D", "EPOCH": "2025-12-02T21:42:28.501920", "MEAN_MOTION": 14.11505975, "ECCENTRICITY": 0.0011743, "INCLINATION": 19.9698, "RA_OF_ASC_NODE": 167.4792, "ARG_OF_PERICENTER": 204.4479, "MEAN_ANOMALY": 184.7163, "EPHEMERIS_TYPE": 0, "CLASSIFICATION_TYPE": "U", "NORAD_CAT_ID": 37841, "ELEMENT_SET_NO": 999, "REV_AT_EPOCH": 73005, "BSTAR": 0.000118, "MEAN_MOTION_DOT": 4.82e-06, "MEAN_MOTION_DDOT": 0}, "tle": {"line1": "1 37841U 11058D   25336.90449655  .00000482  00000+0  11800-3 0  9995", "line2": "2 37841  19.9698 167.4792 0011743 204.4479 184.7163 14.11505975730052"}}, "geometry": {"type": "Point", "coordinates": [64.96065862796328, -19.69613317310956]}}, {"type": "Feature", "properties": {"norad_id": 38012, "name": "PLEIADES 1A", "group": "resource", "lat": -74.94053662444769, "lon": -162.0452918932612, "alt_km": 706.1810048688594, "timestamp": "2025-12-03T08:58:45.655962+00:00", "meta": {"OBJECT_NAME": "PLEIADES 1A", "OBJECT_ID": "2011-076F", "EPOCH": "2025-12-03T04:53:50.621568", "MEAN_MOTION": 14.58545909, "ECCENTRICITY": 0.0001408, "INCLINATION": 98.1834, "RA_OF_ASC_NODE": 50.1194, "ARG_OF_PERICENTER": 81.4068, "MEAN_ANOMALY": 3.3529, "EPHEMERIS_TYPE": 0, "CLASSIFICATION_TYPE": "U", "NORAD_CAT_ID": 38012, "ELEMENT_SET_NO": 999, "REV_AT_EPOCH": 74342, "BSTAR": 0.00013563, "MEAN_MOTION_DOT": 5.85e-06, "MEAN_MOTION_DDOT": 0}, "tle": {"line1": "1 38012U 11076F   25337.20405812  .00000585  00000+0  13563-3 0  9999", "line2": "2 38012  98.1834  50.1194 0001408  81.4068   3.3529 14.58545909743421"}}, "geometry": {"type": "Point", "coordinates": [-162.0452918932612, -74.94053662444769]}}, {"type": "Feature", "properties": {"norad_id": 38038, "name": "ZIYUAN 1-02C (ZY 1-02C)", "group": "resource", "lat": 42.55963154353434, "lon": -128.6090519803875, "alt_km": 757.3275616859664, "timestamp": "2025-12-03T08:58:45.655972+00:00", "meta": {"OBJECT_NAME": "ZIYUAN 1-02C (ZY 1-02C)", "OBJECT_ID": "2011-079A", "EPOCH": "2025-12-03T05:25:58.228032", "MEAN_MOTION": 14.37994368, "ECCENTRICITY": 0.0006769, "INCLINATION": 98.4346, "RA_OF_ASC_NODE": 43.415, "ARG_OF_PERICENTER": 164.8743, "MEAN_ANOMALY": 287.4058, "EPHEMERIS_TYPE": 0, "CLASSIFICATION_TYPE": "U", "NORAD_CAT_ID": 38038, "ELEMENT_SET_NO": 999, "REV_AT_EPOCH": 73104, "BSTAR": 0.00024923, "MEAN_MOTION_DOT": 7.11e-06, "MEAN_MOTION_DDOT": 0}, "tle": {"line1": "1 38038U 11079A   25337.22636838  .00000711  00000+0  24923-3 0  9999", "line2": "2 38038  98.4346  43.4150 0006769 164.8743 287.4058 14.37994368731049"}}, "geometry": {"type": "Point", "coordinates": [-128.6090519803875, 42.55963154353434]}}, {"type": "Feature", "properties": {"norad_id": 38046, "name": "ZIYUAN 3-1 (ZY 3-1)", "group": "resource", "lat": -66.48330583316172, "lon": -153.250658540607, "alt_km": 376.6512278743394, "timestamp": "2025-12-03T08:58:45.655984+00:00", "meta": {"OBJECT_NAME": "ZIYUAN 3-1 (ZY 3-1)", "OBJECT_ID": "2012-001A", "EPOCH": "2025-12-03T04:51:37.213920", "MEAN_MOTION": 15.66733581, "ECCENTRICITY": 0.000217, "INCLINATION": 97.178, "RA_OF_ASC_NODE": 43.4093, "ARG_OF_PERICENTER": 32.48, "MEAN_ANOMALY": 327.6594, "EPHEMERIS_TYPE": 0, "CLASSIFICATION_TYPE": "U", "NORAD_CAT_ID": 38046, "ELEMENT_SET_NO": 999, "REV_AT_EPOCH": 77347, "BSTAR": 0.00074457, "MEAN_MOTION_DOT": 0.00078711, "MEAN_MOTION_DDOT": 0}, "tle": {"line1": "1 38046U 12001A   25337.20251405  .00078711  00000+0  74457-3 0  9997", "line2": "2 38046  97.1780  43.4093 0002170  32.4800 327.6594 15.66733581773474"}}, "geometry": {"type": "Point", "coordinates": [-153.250658540607, -66.48330583316172]}}, {"type": "Feature", "properties": {"norad_id": 38338, "name": "ARIRANG-3 (KOMPSAT-3)", "group": "resource", "lat": 47.86638653823839, "lon": -77.42794389350426, "alt_km": 680.1874171741747, "timestamp": "2025-12-03T08:58:45.656004+00:00", "meta": {"OBJECT_NAME": "ARIRANG-3 (KOMPSAT-3)", "OBJECT_ID": "2012-025B", "EPOCH": "2025-12-03T03:49:46.364160", "MEAN_MOTION": 14.61691175, "ECCENTRICITY": 0.0006042, "INCLINATION": 98.3308, "RA_OF_ASC_NODE": 291.6776, "ARG_OF_PERICENTER": 8.9196, "MEAN_ANOMALY": 351.2111, "EPHEMERIS_TYPE": 0, "CLASSIFICATION_TYPE": "U", "NORAD_CAT_ID": 38338, "ELEMENT_SET_NO": 999, "REV_AT_EPOCH": 72270, "BSTAR": 0.00018079, "MEAN_MOTION_DOT": 8.52e-06, "MEAN_MOTION_DDOT": 0}, "tle": {"line1": "1 38338U 12025B   25337.15956440  .00000852  00000+0  18079-3 0  9991", "line2": "2 38338  98.3308 291.6776 0006042   8.9196 351.2111 14.61691175722704"}}, "geometry": {"type": "Point", "coordinates": [-77.42794389350426, 47.86638653823839]}}, {"type": "Feature", "properties": {"norad_id": 38709, "name": "EXACTVIEW-1 (ADS-1B)", "group": "resource", "lat": -24.647886326936604, "lon": -98.58527706397113, "alt_km": 822.3351240895081, "timestamp": "2025-12-03T08:58:45.656014+00:00", "meta": {"OBJECT_NAME": "EXACTVIEW-1 (ADS-1B)", "OBJECT_ID": "2012-039C", "EPOCH": "2025-12-02T21:54:33.895584", "MEAN_MOTION": 14.24901108, "ECCENTRICITY": 0.0011168, "INCLINATION": 98.9635, "RA_OF_ASC_NODE": 85.097, "ARG_OF_PERICENTER": 22.2691, "MEAN_ANOMALY": 337.897, "EPHEMERIS_TYPE": 0, "CLASSIFICATION_TYPE": "U", "NORAD_CAT_ID": 38709, "ELEMENT_SET_NO": 999, "REV_AT_EPOCH": 69475, "BSTAR": 0.00010398, "MEAN_MOTION_DOT": 1.97e-06, "MEAN_MOTION_DDOT": 0}, "tle": {"line1": "1 38709U 12039C   25336.91289231  .00000197  00000+0  10398-3 0  9996", "line2": "2 38709  98.9635  85.0970 0011168  22.2691 337.8970 14.24901108694755"}}, "geometry": {"type": "Point", "coordinates": [-98.58527706397113, -24.647886326936604]}}]}